KUIPER-00215            
1 67779U 26030R   26192.85955201  .00001268  00000+0  21154-3 0  9994
2 67779  51.9004   1.4353 0000444  77.8404 282.2606 14.76356199 23883
KUIPER-00218            
1 67780U 26030S   26194.90698921  .00000162  00000+0  50252-4 0  9991
2 67780  51.8995   7.4677 0000713 104.4045 255.6996 14.79928560 23971
KUIPER-00220            
1 67781U 26030T   26194.59630878 -.00001812  00000+0 -20843-3 0  9991
2 67781  51.8962 343.8727 0000903  82.6122 277.4943 14.79981621 24278
KUIPER-00222            
1 67782U 26030U   26194.67604339  .00001759  00000+0  25967-3 0  9994
2 67782  51.8999   3.6444 0000628 122.7240 237.3783 14.79942805 24006
KUIPER-00223            
1 67783U 26030V   26194.78541063  .00000505  00000+0  95174-4 0  9997
2 67783  51.9028 355.4545 0000601 113.6818 246.4208 14.79934725 24131
KUIPER-00225            
1 67784U 26030W   26194.64497007 -.00005120  00000+0 -64275-3 0  9998
2 67784  51.9001   1.2385 0000763 130.3695 229.7334 14.79955788 24034
KUIPER-00226            
1 67785U 26030X   26195.16668980 -.00009937  00000+0 -13875-2 0  9996
2 67785  51.9011 344.9007 0003706 150.4277 226.3652 14.76419689  5210
KUIPER-00259            
1 67786U 26030Y   26194.67872600  .00001674  00000+0  24855-3 0  9997
2 67786  51.9004   0.9923 0000641 132.8484 227.2532 14.79942164 24049
KUIPER-00260            
1 67787U 26030Z   26194.74896688  .00000483  00000+0  92310-4 0  9997
2 67787  51.9031 358.2768 0000958 136.4115 223.6923 14.79931434 23993
KUIPER-00262            
1 67788U 26030AA  26194.85024747  .00001804  00000+0  26549-3 0  9997
2 67788  51.9018 357.7475 0000625 164.9988 195.0993 14.79935756 24107
KUIPER-00266            
1 67789U 26030AB  26194.81918086 -.00000160  00000+0  81275-5 0  9996
2 67789  51.9003 355.3810 0002410 171.7631 188.3372 14.79930494 24137
KUIPER-00268            
1 67790U 26030AC  26194.65310808  .00001873  00000+0  27471-3 0  9995
2 67790  51.9053 353.6309 0000581 115.8644 244.2379 14.79914952 24149
KUIPER-00270            
1 67791U 26030AD  26194.83233154  .00001656  00000+0  24574-3 0  9994
2 67791  51.9000 342.8195 0000869  38.5127 321.5898 14.80002732 24311
KUIPER-00274            
1 67792U 26030AE  26194.67333889  .00001322  00000+0  20238-3 0  9996
2 67792  51.9034   6.0199 0000610 156.9697 203.1292 14.79930374 23977
KUIPER-00275            
1 67793U 26030AF  26194.62739453  .00001782  00000+0  26266-3 0  9996
2 67793  51.9015 346.2327 0000644 131.4069 228.6949 14.79932882 24245
KUIPER-00276            
1 67794U 26030AG  26194.72327344  .00001687  00000+0  25023-3 0  9994
2 67794  51.8994 350.7918 0002314 136.9852 223.1292 14.79943387 24190
