{"fetched_at":"2026-07-14T17:40:21.416Z","source":"https://celestrak.org/NORAD/elements/gp.php?GROUP=kuiper&FORMAT=JSON","constellation":"kuiper","records":[{"OBJECT_NAME":"KUIPER-00215","OBJECT_ID":"2026-030R","EPOCH":"2026-07-11T20:37:45.293664","CLASSIFICATION_TYPE":"U","MEAN_MOTION":14.76356199,"ECCENTRICITY":0.00004445,"INCLINATION":51.9004,"RA_OF_ASC_NODE":1.4353,"ARG_OF_PERICENTER":77.8404,"MEAN_ANOMALY":282.2606,"EPHEMERIS_TYPE":0,"NORAD_CAT_ID":67779,"ELEMENT_SET_NO":999,"REV_AT_EPOCH":2388,"BSTAR":0.0002115444,"MEAN_MOTION_DOT":0.00001268,"MEAN_MOTION_DDOT":0},{"OBJECT_NAME":"KUIPER-00218","OBJECT_ID":"2026-030S","EPOCH":"2026-07-13T21:46:03.867744","CLASSIFICATION_TYPE":"U","MEAN_MOTION":14.7992856,"ECCENTRICITY":0.0000713,"INCLINATION":51.8995,"RA_OF_ASC_NODE":7.4677,"ARG_OF_PERICENTER":104.4045,"MEAN_ANOMALY":255.6996,"EPHEMERIS_TYPE":0,"NORAD_CAT_ID":67780,"ELEMENT_SET_NO":999,"REV_AT_EPOCH":2397,"BSTAR":0.000050252,"MEAN_MOTION_DOT":0.00000162,"MEAN_MOTION_DDOT":0},{"OBJECT_NAME":"KUIPER-00220","OBJECT_ID":"2026-030T","EPOCH":"2026-07-13T14:18:41.078592","CLASSIFICATION_TYPE":"U","MEAN_MOTION":14.79981621,"ECCENTRICITY":0.0000903,"INCLINATION":51.8962,"RA_OF_ASC_NODE":343.8727,"ARG_OF_PERICENTER":82.6122,"MEAN_ANOMALY":277.4943,"EPHEMERIS_TYPE":0,"NORAD_CAT_ID":67781,"ELEMENT_SET_NO":999,"REV_AT_EPOCH":2427,"BSTAR":-0.00020843,"MEAN_MOTION_DOT":-0.00001812,"MEAN_MOTION_DDOT":0},{"OBJECT_NAME":"KUIPER-00222","OBJECT_ID":"2026-030U","EPOCH":"2026-07-13T16:13:30.148896","CLASSIFICATION_TYPE":"U","MEAN_MOTION":14.79942805,"ECCENTRICITY":0.0000628,"INCLINATION":51.8999,"RA_OF_ASC_NODE":3.6444,"ARG_OF_PERICENTER":122.724,"MEAN_ANOMALY":237.3783,"EPHEMERIS_TYPE":0,"NORAD_CAT_ID":67782,"ELEMENT_SET_NO":999,"REV_AT_EPOCH":2400,"BSTAR":0.00025967,"MEAN_MOTION_DOT":0.00001759,"MEAN_MOTION_DDOT":0},{"OBJECT_NAME":"KUIPER-00223","OBJECT_ID":"2026-030V","EPOCH":"2026-07-13T18:50:59.478432","CLASSIFICATION_TYPE":"U","MEAN_MOTION":14.79934725,"ECCENTRICITY":0.0000601,"INCLINATION":51.9028,"RA_OF_ASC_NODE":355.4545,"ARG_OF_PERICENTER":113.6818,"MEAN_ANOMALY":246.4208,"EPHEMERIS_TYPE":0,"NORAD_CAT_ID":67783,"ELEMENT_SET_NO":999,"REV_AT_EPOCH":2413,"BSTAR":0.000095174,"MEAN_MOTION_DOT":0.00000505,"MEAN_MOTION_DDOT":0},{"OBJECT_NAME":"KUIPER-00225","OBJECT_ID":"2026-030W","EPOCH":"2026-07-13T15:28:45.414048","CLASSIFICATION_TYPE":"U","MEAN_MOTION":14.79955788,"ECCENTRICITY":0.0000763,"INCLINATION":51.9001,"RA_OF_ASC_NODE":1.2385,"ARG_OF_PERICENTER":130.3695,"MEAN_ANOMALY":229.7334,"EPHEMERIS_TYPE":0,"NORAD_CAT_ID":67784,"ELEMENT_SET_NO":999,"REV_AT_EPOCH":2403,"BSTAR":-0.00064275,"MEAN_MOTION_DOT":-0.0000512,"MEAN_MOTION_DDOT":0},{"OBJECT_NAME":"KUIPER-00226","OBJECT_ID":"2026-030X","EPOCH":"2026-07-14T04:00:01.998720","CLASSIFICATION_TYPE":"U","MEAN_MOTION":14.76419689,"ECCENTRICITY":0.0003706,"INCLINATION":51.9011,"RA_OF_ASC_NODE":344.9007,"ARG_OF_PERICENTER":150.4277,"MEAN_ANOMALY":226.3652,"EPHEMERIS_TYPE":0,"NORAD_CAT_ID":67785,"ELEMENT_SET_NO":999,"REV_AT_EPOCH":521,"BSTAR":-0.0013875,"MEAN_MOTION_DOT":-0.00009937,"MEAN_MOTION_DDOT":0},{"OBJECT_NAME":"KUIPER-00259","OBJECT_ID":"2026-030Y","EPOCH":"2026-07-13T16:17:21.926400","CLASSIFICATION_TYPE":"U","MEAN_MOTION":14.79942164,"ECCENTRICITY":0.0000641,"INCLINATION":51.9004,"RA_OF_ASC_NODE":0.9923,"ARG_OF_PERICENTER":132.8484,"MEAN_ANOMALY":227.2532,"EPHEMERIS_TYPE":0,"NORAD_CAT_ID":67786,"ELEMENT_SET_NO":999,"REV_AT_EPOCH":2404,"BSTAR":0.00024855,"MEAN_MOTION_DOT":0.00001674,"MEAN_MOTION_DDOT":0},{"OBJECT_NAME":"KUIPER-00260","OBJECT_ID":"2026-030Z","EPOCH":"2026-07-13T17:58:30.738432","CLASSIFICATION_TYPE":"U","MEAN_MOTION":14.79931434,"ECCENTRICITY":0.0000958,"INCLINATION":51.9031,"RA_OF_ASC_NODE":358.2768,"ARG_OF_PERICENTER":136.4115,"MEAN_ANOMALY":223.6923,"EPHEMERIS_TYPE":0,"NORAD_CAT_ID":67787,"ELEMENT_SET_NO":999,"REV_AT_EPOCH":2399,"BSTAR":0.00009231,"MEAN_MOTION_DOT":0.00000483,"MEAN_MOTION_DDOT":0},{"OBJECT_NAME":"KUIPER-00262","OBJECT_ID":"2026-030AA","EPOCH":"2026-07-13T20:24:21.381408","CLASSIFICATION_TYPE":"U","MEAN_MOTION":14.79935756,"ECCENTRICITY":0.0000625,"INCLINATION":51.9018,"RA_OF_ASC_NODE":357.7475,"ARG_OF_PERICENTER":164.9988,"MEAN_ANOMALY":195.0993,"EPHEMERIS_TYPE":0,"NORAD_CAT_ID":67788,"ELEMENT_SET_NO":999,"REV_AT_EPOCH":2410,"BSTAR":0.00026549,"MEAN_MOTION_DOT":0.00001804,"MEAN_MOTION_DDOT":0},{"OBJECT_NAME":"KUIPER-00266","OBJECT_ID":"2026-030AB","EPOCH":"2026-07-13T19:39:37.226304","CLASSIFICATION_TYPE":"U","MEAN_MOTION":14.79930494,"ECCENTRICITY":0.000241,"INCLINATION":51.9003,"RA_OF_ASC_NODE":355.381,"ARG_OF_PERICENTER":171.7631,"MEAN_ANOMALY":188.3372,"EPHEMERIS_TYPE":0,"NORAD_CAT_ID":67789,"ELEMENT_SET_NO":999,"REV_AT_EPOCH":2413,"BSTAR":0.0000081275,"MEAN_MOTION_DOT":-0.0000016,"MEAN_MOTION_DDOT":0},{"OBJECT_NAME":"KUIPER-00268","OBJECT_ID":"2026-030AC","EPOCH":"2026-07-13T15:40:28.538112","CLASSIFICATION_TYPE":"U","MEAN_MOTION":14.79914952,"ECCENTRICITY":0.0000581,"INCLINATION":51.9053,"RA_OF_ASC_NODE":353.6309,"ARG_OF_PERICENTER":115.8644,"MEAN_ANOMALY":244.2379,"EPHEMERIS_TYPE":0,"NORAD_CAT_ID":67790,"ELEMENT_SET_NO":999,"REV_AT_EPOCH":2414,"BSTAR":0.00027471,"MEAN_MOTION_DOT":0.00001873,"MEAN_MOTION_DDOT":0},{"OBJECT_NAME":"KUIPER-00270","OBJECT_ID":"2026-030AD","EPOCH":"2026-07-13T19:58:33.445056","CLASSIFICATION_TYPE":"U","MEAN_MOTION":14.80002732,"ECCENTRICITY":0.0000869,"INCLINATION":51.9,"RA_OF_ASC_NODE":342.8195,"ARG_OF_PERICENTER":38.5127,"MEAN_ANOMALY":321.5898,"EPHEMERIS_TYPE":0,"NORAD_CAT_ID":67791,"ELEMENT_SET_NO":999,"REV_AT_EPOCH":2431,"BSTAR":0.00024574,"MEAN_MOTION_DOT":0.00001656,"MEAN_MOTION_DDOT":0},{"OBJECT_NAME":"KUIPER-00274","OBJECT_ID":"2026-030AE","EPOCH":"2026-07-13T16:09:36.480096","CLASSIFICATION_TYPE":"U","MEAN_MOTION":14.79930374,"ECCENTRICITY":0.000061,"INCLINATION":51.9034,"RA_OF_ASC_NODE":6.0199,"ARG_OF_PERICENTER":156.9697,"MEAN_ANOMALY":203.1292,"EPHEMERIS_TYPE":0,"NORAD_CAT_ID":67792,"ELEMENT_SET_NO":999,"REV_AT_EPOCH":2397,"BSTAR":0.00020238,"MEAN_MOTION_DOT":0.00001322,"MEAN_MOTION_DDOT":0},{"OBJECT_NAME":"KUIPER-00275","OBJECT_ID":"2026-030AF","EPOCH":"2026-07-13T15:03:26.887392","CLASSIFICATION_TYPE":"U","MEAN_MOTION":14.79932882,"ECCENTRICITY":0.0000644,"INCLINATION":51.9015,"RA_OF_ASC_NODE":346.2327,"ARG_OF_PERICENTER":131.4069,"MEAN_ANOMALY":228.6949,"EPHEMERIS_TYPE":0,"NORAD_CAT_ID":67793,"ELEMENT_SET_NO":999,"REV_AT_EPOCH":2424,"BSTAR":0.00026266,"MEAN_MOTION_DOT":0.00001782,"MEAN_MOTION_DDOT":0},{"OBJECT_NAME":"KUIPER-00276","OBJECT_ID":"2026-030AG","EPOCH":"2026-07-13T17:21:30.825216","CLASSIFICATION_TYPE":"U","MEAN_MOTION":14.79943387,"ECCENTRICITY":0.0002314,"INCLINATION":51.8994,"RA_OF_ASC_NODE":350.7918,"ARG_OF_PERICENTER":136.9852,"MEAN_ANOMALY":223.1292,"EPHEMERIS_TYPE":0,"NORAD_CAT_ID":67794,"ELEMENT_SET_NO":999,"REV_AT_EPOCH":2419,"BSTAR":0.00025023,"MEAN_MOTION_DOT":0.00001687,"MEAN_MOTION_DDOT":0}]}
